[{"OBJECT_NAME":"SENTINEL-2B","OBJECT_ID":"2017-013A","EPOCH":"2026-03-09T23:26:28.535424","MEAN_MOTION":14.30819717,"ECCENTRICITY":0.00011315,"INCLINATION":98.565,"RA_OF_ASC_NODE":145.1663,"ARG_OF_PERICENTER":94.2934,"MEAN_ANOMALY":265.8378,"EPHEMERIS_TYPE":0,"CLASSIFICATION_TYPE":"U","NORAD_CAT_ID":42063,"ELEMENT_SET_NO":999,"REV_AT_EPOCH":47045,"BSTAR":3.8552046e-5,"MEAN_MOTION_DOT":5.7e-7,"MEAN_MOTION_DDOT":0},{"OBJECT_NAME":"METEOR 2-8 DEB","OBJECT_ID":"1982-025L","EPOCH":"2026-03-09T10:58:55.093440","MEAN_MOTION":14.27318675,"ECCENTRICITY":0.00209378,"INCLINATION":82.5152,"RA_OF_ASC_NODE":335.9895,"ARG_OF_PERICENTER":185.8003,"MEAN_ANOMALY":174.2942,"EPHEMERIS_TYPE":0,"CLASSIFICATION_TYPE":"U","NORAD_CAT_ID":36326,"ELEMENT_SET_NO":999,"REV_AT_EPOCH":8826,"BSTAR":0.00212528,"MEAN_MOTION_DOT":5.23e-5,"MEAN_MOTION_DDOT":0}]
